start=new Date('2022-04-16T00:00:00.000Z').valueOf();
sats=[{"INCLINATION":"53.2164","CLASSIFICATION_TYPE":"U","APOAPSIS":"541.164","ARG_OF_PERICENTER":"31.0664","ECCENTRICITY":"0.00021530","EPOCH":"2022-04-15T22:00:00.999936","SEMIMAJOR_AXIS":"6917.810","OBJECT_NAME":"STARLINK-3317","PERIOD":"95.436","SITE":"AFWTR","MEAN_MOTION_DOT":"-0.00009086","MEAN_MOTION_DDOT":"0.0000000000000","REF_FRAME":"TEME","TIME_SYSTEM":"UTC","DECAY_DATE":null,"RCS_SIZE":"LARGE","RA_OF_ASC_NODE":"160.6734","BSTAR":"-0.00055311000000","MEAN_ANOMALY":"304.6190","TLE_LINE2":"2 50156  53.2164 160.6734 0002153  31.0664 304.6190 15.08863056  3578","FILE":"3403567","ELEMENT_SET_NO":"999","CENTER_NAME":"EARTH","OBJECT_ID":"2021-125A","NORAD_CAT_ID":"50156","MEAN_MOTION":"15.08863056","GP_ID":"201344628","OBJECT_TYPE":"PAYLOAD","TLE_LINE1":"1 50156U 21125A   22105.91667824 -.00009086  00000-0 -55311-3 0  9994","EPHEMERIS_TYPE":"0","LAUNCH_DATE":"2021-12-18","PERIAPSIS":"538.186","REV_AT_EPOCH":"357","MEAN_ELEMENT_THEORY":"SGP4","COUNTRY_CODE":"US"},{"CLASSIFICATION_TYPE":"U","APOAPSIS":"541.237","INCLINATION":"53.2176","EPOCH":"2022-04-15T22:00:00.999936","ECCENTRICITY":"0.00022980","ARG_OF_PERICENTER":"27.1096","SITE":"AFWTR","PERIOD":"95.436","OBJECT_NAME":"STARLINK-3313","SEMIMAJOR_AXIS":"6917.782","DECAY_DATE":null,"RCS_SIZE":"LARGE","TIME_SYSTEM":"UTC","REF_FRAME":"TEME","MEAN_MOTION_DOT":"-0.00025496","MEAN_MOTION_DDOT":"0.0000000000000","RA_OF_ASC_NODE":"170.6973","FILE":"3403567","TLE_LINE2":"2 50157  53.2176 170.6973 0002298  27.1096 178.7762 15.08872030  3581","BSTAR":"-0.00158800000000","MEAN_ANOMALY":"178.7762","TLE_LINE1":"1 50157U 21125B   22105.91667824 -.00025496  00000-0 -15880-2 0  9994","GP_ID":"201343376","OBJECT_TYPE":"PAYLOAD","MEAN_MOTION":"15.08872030","NORAD_CAT_ID":"50157","OBJECT_ID":"2021-125B","CENTER_NAME":"EARTH","ELEMENT_SET_NO":"999","MEAN_ELEMENT_THEORY":"SGP4","COUNTRY_CODE":"US","REV_AT_EPOCH":"358","PERIAPSIS":"538.058","EPHEMERIS_TYPE":"0","LAUNCH_DATE":"2021-12-18"},{"PERIOD":"95.435","OBJECT_NAME":"STARLINK-3309","SITE":"AFWTR","SEMIMAJOR_AXIS":"6917.772","TIME_SYSTEM":"UTC","REF_FRAME":"TEME","DECAY_DATE":null,"RCS_SIZE":"LARGE","MEAN_MOTION_DOT":"-0.00043117","MEAN_MOTION_DDOT":"0.0000000000000","CLASSIFICATION_TYPE":"U","APOAPSIS":"541.210","INCLINATION":"53.2165","EPOCH":"2022-04-15T22:00:00.999936","ECCENTRICITY":"0.00022750","ARG_OF_PERICENTER":"28.4797","TLE_LINE1":"1 50158U 21125C   22105.91667824 -.00043117  00000-0 -27045-2 0  9991","OBJECT_ID":"2021-125C","ELEMENT_SET_NO":"999","CENTER_NAME":"EARTH","GP_ID":"201312921","OBJECT_TYPE":"PAYLOAD","MEAN_MOTION":"15.08875623","NORAD_CAT_ID":"50158","COUNTRY_CODE":"US","MEAN_ELEMENT_THEORY":"SGP4","REV_AT_EPOCH":"1842","EPHEMERIS_TYPE":"0","LAUNCH_DATE":"2021-12-18","PERIAPSIS":"538.063","RA_OF_ASC_NODE":"170.6986","TLE_LINE2":"2 50158  53.2165 170.6986 0002275  28.4797 237.4187 15.08875623 18425","FILE":"3403201","MEAN_ANOMALY":"237.4187","BSTAR":"-0.00270450000000"},{"TLE_LINE1":"1 50159U 21125D   22105.91667824 -.00041077  00000-0 -25747-2 0  9992","MEAN_MOTION":"15.08879020","NORAD_CAT_ID":"50159","OBJECT_TYPE":"PAYLOAD","GP_ID":"201344378","CENTER_NAME":"EARTH","ELEMENT_SET_NO":"999","OBJECT_ID":"2021-125D","REV_AT_EPOCH":"358","COUNTRY_CODE":"US","MEAN_ELEMENT_THEORY":"SGP4","PERIAPSIS":"538.081","LAUNCH_DATE":"2021-12-18","EPHEMERIS_TYPE":"0","RA_OF_ASC_NODE":"170.6960","FILE":"3403567","TLE_LINE2":"2 50159  53.2166 170.6960 0002234  32.5118 253.3793 15.08879020  3583","BSTAR":"-0.00257470000000","MEAN_ANOMALY":"253.3793","SITE":"AFWTR","OBJECT_NAME":"STARLINK-3297","PERIOD":"95.435","SEMIMAJOR_AXIS":"6917.761","DECAY_DATE":null,"RCS_SIZE":"LARGE","REF_FRAME":"TEME","TIME_SYSTEM":"UTC","MEAN_MOTION_DOT":"-0.00041077","MEAN_MOTION_DDOT":"0.0000000000000","CLASSIFICATION_TYPE":"U","APOAPSIS":"541.172","INCLINATION":"53.2166","EPOCH":"2022-04-15T22:00:00.999936","ECCENTRICITY":"0.00022340","ARG_OF_PERICENTER":"32.5118"},{"MEAN_ANOMALY":"220.7333","BSTAR":"0.00008646900000","TLE_LINE2":"2 50160  53.2163 170.6980 0002322  25.1443 220.7333 15.08852387  3586","FILE":"3403567","RA_OF_ASC_NODE":"170.6980","LAUNCH_DATE":"2021-12-18","EPHEMERIS_TYPE":"0","PERIAPSIS":"538.101","REV_AT_EPOCH":"358","MEAN_ELEMENT_THEORY":"SGP4","COUNTRY_CODE":"US","ELEMENT_SET_NO":"999","CENTER_NAME":"EARTH","OBJECT_ID":"2021-125E","NORAD_CAT_ID":"50160","MEAN_MOTION":"15.08852387","GP_ID":"201344129","OBJECT_TYPE":"PAYLOAD","TLE_LINE1":"1 50160U 21125E   22105.91667824  .00001089  00000-0  86469-4 0  9991","ARG_OF_PERICENTER":"25.1443","ECCENTRICITY":"0.00023220","EPOCH":"2022-04-15T22:00:00.999936","INCLINATION":"53.2163","CLASSIFICATION_TYPE":"U","APOAPSIS":"541.314","MEAN_MOTION_DOT":"0.00001089","MEAN_MOTION_DDOT":"0.0000000000000","REF_FRAME":"TEME","TIME_SYSTEM":"UTC","DECAY_DATE":null,"RCS_SIZE":"LARGE","SEMIMAJOR_AXIS":"6917.843","OBJECT_NAME":"STARLINK-3288","PERIOD":"95.437","SITE":"AFWTR"},{"RA_OF_ASC_NODE":"170.6981","MEAN_ANOMALY":"196.5940","BSTAR":"-0.00283750000000","FILE":"3403567","TLE_LINE2":"2 50161  53.2180 170.6981 0002170  29.3012 196.5940 15.08856267  3581","GP_ID":"201342877","OBJECT_TYPE":"PAYLOAD","MEAN_MOTION":"15.08856267","NORAD_CAT_ID":"50161","OBJECT_ID":"2021-125F","ELEMENT_SET_NO":"999","CENTER_NAME":"EARTH","TLE_LINE1":"1 50161U 21125F   22105.91667824 -.00045186  00000-0 -28375-2 0  9990","PERIAPSIS":"538.194","LAUNCH_DATE":"2021-12-18","EPHEMERIS_TYPE":"0","MEAN_ELEMENT_THEORY":"SGP4","COUNTRY_CODE":"US","REV_AT_EPOCH":"358","INCLINATION":"53.2180","APOAPSIS":"541.197","CLASSIFICATION_TYPE":"U","ECCENTRICITY":"0.00021700","ARG_OF_PERICENTER":"29.3012","EPOCH":"2022-04-15T22:00:00.999936","SEMIMAJOR_AXIS":"6917.831","SITE":"AFWTR","PERIOD":"95.437","OBJECT_NAME":"STARLINK-3304","MEAN_MOTION_DOT":"-0.00045186","MEAN_MOTION_DDOT":"0.0000000000000","DECAY_DATE":null,"RCS_SIZE":"LARGE","TIME_SYSTEM":"UTC","REF_FRAME":"TEME"},{"RA_OF_ASC_NODE":"133.1326","TLE_LINE2":"2 50162  53.2174 133.1326 0001405  33.9594 340.7104 15.77387311  3050","FILE":"3403567","MEAN_ANOMALY":"340.7104","BSTAR":"-0.00506550000000","TLE_LINE1":"1 50162U 21125G   22105.91667824 -.00780282  00000-0 -50655-2 0  9990","OBJECT_ID":"2021-125G","CENTER_NAME":"EARTH","ELEMENT_SET_NO":"999","GP_ID":"201343127","OBJECT_TYPE":"PAYLOAD","MEAN_MOTION":"15.77387311","NORAD_CAT_ID":"50162","COUNTRY_CODE":"US","MEAN_ELEMENT_THEORY":"SGP4","REV_AT_EPOCH":"305","EPHEMERIS_TYPE":"0","LAUNCH_DATE":"2021-12-18","PERIAPSIS":"336.905","CLASSIFICATION_TYPE":"U","APOAPSIS":"338.792","INCLINATION":"53.2174","EPOCH":"2022-04-15T22:00:00.999936","ARG_OF_PERICENTER":"33.9594","ECCENTRICITY":"0.00014050","PERIOD":"91.290","OBJECT_NAME":"STARLINK-3303","SITE":"AFWTR","SEMIMAJOR_AXIS":"6715.983","TIME_SYSTEM":"UTC","REF_FRAME":"TEME","RCS_SIZE":"LARGE","DECAY_DATE":null,"MEAN_MOTION_DDOT":"0.0000000000000","MEAN_MOTION_DOT":"-0.00780282"},{"APOAPSIS":"485.897","CLASSIFICATION_TYPE":"U","INCLINATION":"53.2176","EPOCH":"2022-04-15T22:00:00.999936","ECCENTRICITY":"0.00017510","ARG_OF_PERICENTER":"36.3377","SITE":"AFWTR","PERIOD":"94.301","OBJECT_NAME":"STARLINK-3306","SEMIMAJOR_AXIS":"6862.830","RCS_SIZE":"LARGE","DECAY_DATE":null,"TIME_SYSTEM":"UTC","REF_FRAME":"TEME","MEAN_MOTION_DOT":"-0.00299234","MEAN_MOTION_DDOT":"0.0000000000000","RA_OF_ASC_NODE":"152.5722","FILE":"3403567","TLE_LINE2":"2 50163  53.2176 152.5722 0001751  36.3377  29.6649 15.27031147  3626","BSTAR":"-0.01157600000000","MEAN_ANOMALY":"29.6649","TLE_LINE1":"1 50163U 21125H   22105.91667824 -.00299234  00000-0 -11576-1 0  9991","GP_ID":"201343879","OBJECT_TYPE":"PAYLOAD","NORAD_CAT_ID":"50163","MEAN_MOTION":"15.27031147","OBJECT_ID":"2021-125H","ELEMENT_SET_NO":"999","CENTER_NAME":"EARTH","COUNTRY_CODE":"US","MEAN_ELEMENT_THEORY":"SGP4","REV_AT_EPOCH":"362","PERIAPSIS":"483.493","EPHEMERIS_TYPE":"0","LAUNCH_DATE":"2021-12-18"},{"RA_OF_ASC_NODE":"139.0353","MEAN_ANOMALY":"86.8381","BSTAR":"-0.00035741000000","TLE_LINE2":"2 50164  53.2099 139.0353 0008718 277.3391  86.8381 15.76791951  3699","FILE":"3403567","ELEMENT_SET_NO":"999","CENTER_NAME":"EARTH","OBJECT_ID":"2021-125J","NORAD_CAT_ID":"50164","MEAN_MOTION":"15.76791951","OBJECT_TYPE":"PAYLOAD","GP_ID":"201344629","TLE_LINE1":"1 50164U 21125J   22105.91667824 -.00059077  00000-0 -35741-3 0  9993","LAUNCH_DATE":"2021-12-18","EPHEMERIS_TYPE":"0","PERIAPSIS":"333.682","REV_AT_EPOCH":"369","COUNTRY_CODE":"US","MEAN_ELEMENT_THEORY":"SGP4","INCLINATION":"53.2099","CLASSIFICATION_TYPE":"U","APOAPSIS":"345.395","ARG_OF_PERICENTER":"277.3391","ECCENTRICITY":"0.00087180","EPOCH":"2022-04-15T22:00:00.999936","SEMIMAJOR_AXIS":"6717.674","OBJECT_NAME":"STARLINK-3307","PERIOD":"91.325","SITE":"AFWTR","MEAN_MOTION_DOT":"-0.00059077","MEAN_MOTION_DDOT":"0.0000000000000","REF_FRAME":"TEME","TIME_SYSTEM":"UTC","RCS_SIZE":"LARGE","DECAY_DATE":null},{"MEAN_MOTION":"15.08877372","NORAD_CAT_ID":"50165","OBJECT_TYPE":"PAYLOAD","GP_ID":"201343377","ELEMENT_SET_NO":"999","CENTER_NAME":"EARTH","OBJECT_ID":"2021-125K","TLE_LINE1":"1 50165U 21125K   22105.91667824 -.00044142  00000-0 -27695-2 0  9999","PERIAPSIS":"538.106","LAUNCH_DATE":"2021-12-18","EPHEMERIS_TYPE":"0","REV_AT_EPOCH":"358","MEAN_ELEMENT_THEORY":"SGP4","COUNTRY_CODE":"US","RA_OF_ASC_NODE":"170.6872","MEAN_ANOMALY":"276.3160","BSTAR":"-0.00276950000000","FILE":"3403567","TLE_LINE2":"2 50165  53.2193 170.6872 0002204  29.5565 276.3160 15.08877372  3582","SEMIMAJOR_AXIS":"6917.766","SITE":"AFWTR","OBJECT_NAME":"STARLINK-3298","PERIOD":"95.435","MEAN_MOTION_DDOT":"0.0000000000000","MEAN_MOTION_DOT":"-0.00044142","DECAY_DATE":null,"RCS_SIZE":"LARGE","REF_FRAME":"TEME","TIME_SYSTEM":"UTC","INCLINATION":"53.2193","APOAPSIS":"541.156","CLASSIFICATION_TYPE":"U","ECCENTRICITY":"0.00022040","ARG_OF_PERICENTER":"29.5565","EPOCH":"2022-04-15T22:00:00.999936"}];
